LEMUR-2-THENICKMOLO     
1 43185U 18014F   23245.52629985  .00009216  00000+0  64285-3 0  9992
2 43185  97.6006 146.9074 0006996 230.2532 129.8079 15.05588157305244
S-NET D                 
1 43186U 18014G   23245.52648899  .00003922  00000+0  31116-3 0  9993
2 43186  97.6157 147.8397 0012387 277.7757  82.2061 15.01034471305150
S-NET B                 
1 43187U 18014H   23245.52789130  .00003950  00000+0  31331-3 0  9998
2 43187  97.6159 147.7666 0012826 276.1691  83.8072 15.01030775305151
S-NET A                 
1 43188U 18014J   23245.46121631  .00003955  00000+0  31370-3 0  9996
2 43188  97.6166 147.7944 0012827 276.3345  83.6418 15.01032982305141
S-NET C                 
1 43189U 18014K   23245.53053836  .00003953  00000+0  31356-3 0  9998
2 43189  97.6170 147.7487 0013539 271.8486  88.1188 15.01028278303703
ZHANGHENG 1 (CSES)      
1 43194U 18015C   23245.50941466  .00011024  00000+0  50383-3 0  9996
2 43194  97.5765  22.0647 0006886  84.1054 276.0966 15.20718132309810
NUSAT-4 (ADA)           
1 43195U 18015D   23245.50059119  .00059458  00000+0  80675-3 0  9992
2 43195  97.5819  46.2011 0008426 257.6600 102.3711 15.57419204311270
GOMX-4B                 
1 43196U 18015E   23245.38806533  .00018190  00000+0  47153-3 0  9991
2 43196  97.5877  38.7602 0012577 290.0668  69.9223 15.39000268310815
GOMX-4A                 
1 43197U 18015F   23245.54119355  .00021823  00000+0  49841-3 0  9992
2 43197  97.5872  41.4390 0011830 282.3152  77.6771 15.42811177311019
NUSAT-5 (MARYAM)        
1 43204U 18015K   23245.52693922  .00064193  00000+0  81321-3 0  9992
2 43204  97.5813  47.3937 0008261 258.3819 101.6510 15.59235246310947
BEIDOU-3 M4             
1 43207U 18018A   23244.52634046  .00000007  00000+0  00000+0 0  9994
2 43207  55.7985  97.0187 0004946  12.4558 347.6492  1.86231382 37758
BEIDOU-3 M3             
1 43208U 18018B   23245.12993997  .00000000  00000+0  00000+0 0  9998
2 43208  55.7985  97.0028 0005901 319.4410  40.6047  1.86231300 37769
PAZ                     
1 43215U 18020A   23245.52022060  .00002514  00000+0  12290-3 0  9997
2 43215  97.4458 251.5408 0001673  88.2988 271.8438 15.19144662306358
GOES 17                 
1 43226U 18022A   23245.57349111 -.00000105  00000+0  00000+0 0  9992
2 43226   0.0231 312.0269 0002082 205.9331 285.2473  1.00271512 20207
HISPASAT 30W-6          
1 43228U 18023A   23245.47263418 -.00000231  00000+0  00000+0 0  9999
2 43228   0.0399  47.1028 0003276  87.9811 346.4165  1.00271732 20224
PODSAT                  
1 43229U 18023B   23245.50948615  .00033601  00000+0  67995-3 0  9999
2 43229  26.8382 312.0264 4296162  34.6162 347.0749  6.98486254114193
O3B FM15                
1 43231U 18024A   23245.24981315 -.00000024  00000+0  00000+0 0  9992
2 43231   0.0530 356.9141 0002712 159.0174 204.0802  5.00114444100056
O3B FM16                
1 43232U 18024B   23245.30300452 -.00000024  00000+0  00000+0 0  9997
2 43232   0.0564 354.4909 0002754 160.6390 204.8824  5.00116156 99975
O3B FM14                
1 43233U 18024C   23245.34303177 -.00000024  00000+0  00000+0 0  9999
2 43233   0.0580 354.4061 0002941 162.4145 203.1918  5.00115673 99989
O3B FM13                
1 43234U 18024D   23245.39671658 -.00000024  00000+0  00000+0 0  9997
2 43234   0.0435 358.5425 0002643 143.8914 217.5836  5.00115509100095
LKW-4                   
1 43236U 18025A   23245.28284804  .00009607  00000+0  40200-3 0  9996
2 43236  97.5254  11.2296 0005164  90.8786 269.3043 15.23773925303723
BEIDOU-3 M9             
1 43245U 18029A   23244.81581217 -.00000094  00000+0  00000+0 0  9998
2 43245  55.0142 335.3045 0001396 211.7933 148.2433  1.86232368 36918
BEIDOU-3 M10            
1 43246U 18029B   23245.28279641 -.00000097  00000+0  00000+0 0  9999
2 43246  55.0113 335.3175 0002693 358.1038   1.9402  1.86232826 36903
IRIDIUM 144             
1 43249U 18030A   23244.84277191  .00000150  00000+0  46483-4 0  9992
2 43249  86.4026 356.4306 0002229  87.9524 272.1927 14.34217440284034
IRIDIUM 149             
1 43250U 18030B   23245.26772550  .00000123  00000+0  36839-4 0  9994
2 43250  86.4019 356.2311 0002204  88.7016 271.4432 14.34217522284113
IRIDIUM 157             
1 43251U 18030C   23245.28675387  .00000173  00000+0  54807-4 0  9997
2 43251  86.4025 356.2540 0002197  99.2628 260.8816 14.34218014284094
IRIDIUM 140             
1 43252U 18030D   23245.02671994  .00000299  00000+0  99556-4 0  9999
2 43252  86.4026 356.3772 0002370  87.8812 272.2656 14.34218936284110
IRIDIUM 145             
1 43253U 18030E   23245.29309526  .00000380  00000+0  12848-3 0  9997
2 43253  86.4024 356.2409 0002017  81.8676 278.2749 14.34218644284086
IRIDIUM 146             
1 43254U 18030F   23245.27407006  .00000353  00000+0  11913-3 0  9990
2 43254  86.4027 356.2642 0002047  90.6206 269.5225 14.34217794284097
IRIDIUM 148             
1 43255U 18030G   23245.24235712  .00000354  00000+0  11947-3 0  9999
2 43255  86.4025 356.3055 0001901  91.5802 268.5611 14.34214163284124
IRIDIUM 142             
1 43256U 18030H   23244.93156775  .00000370  00000+0  12488-3 0  9995
2 43256  86.4024 356.3613 0002058  93.2258 266.9173 14.34219701284041
IRIDIUM 150             
1 43257U 18030J   23245.31846643  .00000324  00000+0  10875-3 0  9996
2 43257  86.4026 356.2830 0002427  87.4034 272.7440 14.34219989284120
IRIDIUM 143             
1 43258U 18030K   23245.02036337  .00000393  00000+0  13334-3 0  9995
2 43258  86.4029 356.4592 0002008  89.1758 270.9668 14.34218946284010
GAOFEN 1-02             
1 43259U 18031A   23245.49258311  .00001133  00000+0  16962-3 0  9999
2 43259  97.8579 316.3940 0004187  31.6672 328.4790 14.76541751292378
GAOFEN 1-03             
1 43260U 18031B   23245.53859567  .00001186  00000+0  17699-3 0  9992
2 43260  97.8573 316.3794 0006268  97.5860 262.6062 14.76589596292373
GAOFEN 1-04             
1 43262U 18031D   23245.51405742  .00001157  00000+0  17284-3 0  9992
2 43262  97.8581 316.4319 0004218  61.3522 298.8112 14.76584508292369
SUPERBIRD-B3            
1 43271U 18033A   23245.51420329 -.00000107  00000+0  00000+0 0  9991
2 43271   0.0107 159.9560 0001380 349.2052 179.3432  1.00271768 19831
HYLAS 4                 
1 43272U 18033B   23245.40023135 -.00000248  00000+0  00000+0 0  9990
2 43272   0.0892 269.7484 0001554 263.3545 278.7644  1.00271269 19851
YAOGAN-31 A             
1 43275U 18034A   23245.53763902 -.00000025  00000+0  99855-4 0  9995
2 43275  63.3999 190.5143 0184308   4.5830 355.6830 13.45277353265170
YAOGAN-31 B             
1 43276U 18034B   23245.53783738 -.00000026  00000+0  97945-4 0  9994
2 43276  63.4000 190.4999 0184352   4.5603 355.7049 13.45279275265178
YAOGAN-31 C             
1 43277U 18034C   23245.46332970 -.00000014  00000+0  11624-3 0  9991
2 43277  63.4010 189.9587 0184437   4.3950 355.8643 13.45278239265184
WEINA 1B                
1 43279U 18034E   23245.50028663 -.00000027  00000+0  96182-4 0  9996
2 43279  63.4002 190.8415 0184352   5.3203 354.9725 13.45231118265160
IRNSS-1I                
1 43286U 18035A   23245.13142272  .00000084  00000+0  00000+0 0  9998
2 43286  29.2463  90.2263 0019542 176.4526 176.7301  1.00270832 19856
USA 283                 
1 43339U 18036A   23244.54049505 -.00000333  00000+0  00000+0 0  9995
2 43339   0.0242 141.6548 0000851 115.8620  51.5779  1.00271037 15065
COSMOS 2526             
1 43432U 18037A   23245.50403411 -.00000359  00000+0  00000+0 0  9995
2 43432   0.0229 112.8551 0000417 124.9251  53.1113  1.00274631 19750
TESS                    
1 43435U 18038A   23250.98460972 -.00000926  00000+0  00000+0 0  9992
2 43435  42.3297  73.3372 4732633 158.0547  11.4179  0.07541451  1103
SENTINEL-3B             
1 43437U 18039A   23245.41267878  .00000173  00000+0  89530-4 0  9990
2 43437  98.6222 311.4183 0001255  81.1777 278.9545 14.26736233278854
ZHUHAI-1 OHS-01         
1 43439U 18040A   23245.51380289  .00015507  00000+0  49662-3 0  9995
2 43439  97.1794 293.7525 0008014 265.5877  94.4449 15.32435162297114
ZHUHAI-1 OVS-02         
1 43440U 18040B   23245.53519892  .00014886  00000+0  48512-3 0  9995
2 43440  97.1831 294.0582 0007171 281.5813  78.4624 15.31891419297124
ZHUHAI-1 OHS-02         
1 43441U 18040C   23245.48550259  .00015580  00000+0  50170-3 0  9997
2 43441  97.1959 297.0822 0007770 299.7524  60.2945 15.32260649297122
ZHUHAI-1 OHS-03         
1 43442U 18040D   23245.54597854  .00016719  00000+0  50324-3 0  9993
2 43442  97.1778 294.5143 0002138 303.6636  56.4403 15.34423241297219
ZHUHAI-1 OHS-04         
1 43443U 18040E   23245.48630428  .00016624  00000+0  53683-3 0  9998
2 43443  97.1864 294.8148 0003585 259.5513 100.5325 15.32179477297125
USA 285                 
1 43445U 18036E   23243.77340948  .00000029  00000+0  00000+0 0  9993
2 43445   4.6047  78.7898 0009448 124.5938 233.7553  1.02111056 16515
USA 286                 
1 43446U 18036F   23244.08174338 -.00000150  00000+0  00000+0 0  9993
2 43446   4.6033  78.7414 0009183 121.0585  39.1046  1.02121556 16501
APSTAR 6C               
1 43450U 18041A   23245.55882760 -.00000333  00000+0  00000+0 0  9995
2 43450   0.0650 269.6407 0002816 286.6435 120.3433  1.00273256 19613
GAOFEN 5-01             
1 43461U 18043A   23245.31579254  .00000632  00000+0  14593-3 0  9991
2 43461  98.3145 189.6972 0002402  36.9421 323.1943 14.58551901283057
BANGABANDHUSAT-1        
1 43463U 18044A   23245.43060226 -.00000378  00000+0  00000+0 0  9993
2 43463   0.0174 130.0445 0002644  49.1901  76.1939  1.00272634 19494
GRACE-FO 1              
1 43476U 18047A   23245.50965234  .00003425  00000+0  12893-3 0  9993
2 43476  88.9923 338.6670 0016667  98.7247 261.5890 15.26688022293792
GRACE-FO 2              
1 43477U 18047B   23245.50995345  .00003437  00000+0  12938-3 0  9993
2 43477  88.9922 338.6679 0016660  98.7149 261.5988 15.26686929293797
